[
    {
        "CCSDS_OMM_VERS": "3.0",
        "COMMENT": "GENERATED VIA SPACE-TRACK.ORG API",
        "CREATION_DATE": "2025-03-02T18:08:23",
        "ORIGINATOR": "18 SPCS",
        "OBJECT_NAME": "QZS-1R",
        "OBJECT_ID": "2021-096A",
        "CENTER_NAME": "EARTH",
        "REF_FRAME": "TEME",
        "TIME_SYSTEM": "UTC",
        "MEAN_ELEMENT_THEORY": "SGP4",
        "EPOCH": "2025-03-02T09:22:21.749664",
        "MEAN_MOTION": "1.00289625",
        "ECCENTRICITY": "0.07489790",
        "INCLINATION": "36.4780",
        "RA_OF_ASC_NODE": "86.6176",
        "ARG_OF_PERICENTER": "269.4544",
        "MEAN_ANOMALY": "80.1390",
        "EPHEMERIS_TYPE": "0",
        "CLASSIFICATION_TYPE": "U",
        "NORAD_CAT_ID": "49336",
        "ELEMENT_SET_NO": "999",
        "REV_AT_EPOCH": "1227",
        "BSTAR": "0.00000000000000",
        "MEAN_MOTION_DOT": "-0.00000228",
        "MEAN_MOTION_DDOT": "0.0000000000000",
        "SEMIMAJOR_AXIS": "42159.732",
        "PERIOD": "1435.841",
        "APOAPSIS": "38939.272",
        "PERIAPSIS": "32623.921",
        "OBJECT_TYPE": "PAYLOAD",
        "RCS_SIZE": "LARGE",
        "COUNTRY_CODE": "JPN",
        "LAUNCH_DATE": "2021-10-26",
        "SITE": "TNSTA",
        "DECAY_DATE": null,
        "FILE": "4657142",
        "GP_ID": "282090297",
        "TLE_LINE0": "0 QZS-1R",
        "TLE_LINE1": "1 49336U 21096A   25061.39052951 -.00000228  00000-0  00000-0 0  9994",
        "TLE_LINE2": "2 49336  36.4780  86.6176 0748979 269.4544  80.1390  1.00289625 12273"
    }
]